start=new Date('2023-03-11T00:00:00.000Z').valueOf();
sats=[{"TIME_SYSTEM":"UTC","ECCENTRICITY":"0.00011190","COUNTRY_CODE":"US","REV_AT_EPOCH":"6354","ARG_OF_PERICENTER":"101.8569","CENTER_NAME":"EARTH","MEAN_MOTION_DDOT":"0.0000000000000","SITE":"AFETR","RCS_SIZE":"LARGE","GP_ID":"227818087","PERIOD":"95.436","REF_FRAME":"TEME","MEAN_ANOMALY":"258.2549","EPOCH":"2023-03-10T13:09:29.004768","OBJECT_ID":"2022-005N","TLE_LINE2":"2 51116  53.2161 165.4024 0001119 101.8569 258.2549 15.08859212 63542","FILE":"3856975","TLE_LINE1":"1 51116U 22005N   23069.54825237  .00006613  00000-0  43297-3 0  9993","ELEMENT_SET_NO":"999","NORAD_CAT_ID":"51116","PERIAPSIS":"538.913","APOAPSIS":"540.461","EPHEMERIS_TYPE":"0","RA_OF_ASC_NODE":"165.4024","SEMIMAJOR_AXIS":"6917.822","INCLINATION":"53.2161","CLASSIFICATION_TYPE":"U","DECAY_DATE":null,"MEAN_MOTION":"15.08859212","MEAN_ELEMENT_THEORY":"SGP4","MEAN_MOTION_DOT":"0.00006613","BSTAR":"0.00043297000000","OBJECT_TYPE":"PAYLOAD","LAUNCH_DATE":"2022-01-19","OBJECT_NAME":"STARLINK-3243"},{"RCS_SIZE":"LARGE","EPOCH":"2023-03-10T22:00:00.999936","MEAN_ANOMALY":"303.9529","REF_FRAME":"TEME","PERIOD":"95.400","GP_ID":"227816835","ARG_OF_PERICENTER":"72.6245","REV_AT_EPOCH":"130","COUNTRY_CODE":"US","ECCENTRICITY":"0.00014810","TIME_SYSTEM":"UTC","SITE":"AFETR","MEAN_MOTION_DDOT":"0.0000000000000","CENTER_NAME":"EARTH","LAUNCH_DATE":"2022-01-19","OBJECT_TYPE":"PAYLOAD","BSTAR":"-0.03413100000000","MEAN_MOTION_DOT":"-0.00519696","OBJECT_NAME":"STARLINK-3391","PERIAPSIS":"536.883","NORAD_CAT_ID":"51117","FILE":"3856975","TLE_LINE1":"1 51117U 22005P   23069.91667824 -.00519696  00000-0 -34131-1 0  9998","ELEMENT_SET_NO":"999","TLE_LINE2":"2 51117  53.2135 163.7211 0001481  72.6245 303.9529 15.09441685  1305","OBJECT_ID":"2022-005P","MEAN_ELEMENT_THEORY":"SGP4","MEAN_MOTION":"15.09441685","DECAY_DATE":null,"CLASSIFICATION_TYPE":"U","INCLINATION":"53.2135","SEMIMAJOR_AXIS":"6916.042","RA_OF_ASC_NODE":"163.7211","EPHEMERIS_TYPE":"0","APOAPSIS":"538.931"},{"CLASSIFICATION_TYPE":"U","MEAN_ELEMENT_THEORY":"SGP4","DECAY_DATE":null,"MEAN_MOTION":"15.08778423","EPHEMERIS_TYPE":"0","APOAPSIS":"540.794","INCLINATION":"53.2149","RA_OF_ASC_NODE":"163.9647","SEMIMAJOR_AXIS":"6918.069","TLE_LINE1":"1 51118U 22005Q   23069.86841811 -.00016119  00000-0 -99864-3 0  9991","ELEMENT_SET_NO":"999","FILE":"3856975","TLE_LINE2":"2 51118  53.2149 163.9647 0001244 153.9718 206.1336 15.08778423 63592","PERIAPSIS":"539.073","NORAD_CAT_ID":"51118","OBJECT_ID":"2022-005Q","OBJECT_NAME":"STARLINK-3394","OBJECT_TYPE":"PAYLOAD","LAUNCH_DATE":"2022-01-19","MEAN_MOTION_DOT":"-0.00016119","BSTAR":"-0.00099864000000","MEAN_MOTION_DDOT":"0.0000000000000","SITE":"AFETR","CENTER_NAME":"EARTH","COUNTRY_CODE":"US","REV_AT_EPOCH":"6359","ARG_OF_PERICENTER":"153.9718","TIME_SYSTEM":"UTC","ECCENTRICITY":"0.00012440","MEAN_ANOMALY":"206.1336","EPOCH":"2023-03-10T20:50:31.324704","GP_ID":"227817085","REF_FRAME":"TEME","PERIOD":"95.441","RCS_SIZE":"LARGE"},{"OBJECT_NAME":"STARLINK-3390","LAUNCH_DATE":"2022-01-19","OBJECT_TYPE":"PAYLOAD","BSTAR":"0.00097424000000","MEAN_MOTION_DOT":"0.00015254","MEAN_MOTION":"15.08847004","DECAY_DATE":null,"MEAN_ELEMENT_THEORY":"SGP4","CLASSIFICATION_TYPE":"U","RA_OF_ASC_NODE":"165.5524","SEMIMAJOR_AXIS":"6917.859","INCLINATION":"53.2144","APOAPSIS":"540.861","EPHEMERIS_TYPE":"0","NORAD_CAT_ID":"51119","PERIAPSIS":"538.587","TLE_LINE2":"2 51119  53.2144 165.5524 0001644  96.9123 263.2057 15.08847004 63541","FILE":"3856975","TLE_LINE1":"1 51119U 22005R   23069.51513560  .00015254  00000-0  97424-3 0  9998","ELEMENT_SET_NO":"999","OBJECT_ID":"2022-005R","EPOCH":"2023-03-10T12:21:47.715840","MEAN_ANOMALY":"263.2057","PERIOD":"95.437","REF_FRAME":"TEME","GP_ID":"227817837","RCS_SIZE":"LARGE","SITE":"AFETR","MEAN_MOTION_DDOT":"0.0000000000000","CENTER_NAME":"EARTH","ARG_OF_PERICENTER":"96.9123","REV_AT_EPOCH":"6354","COUNTRY_CODE":"US","ECCENTRICITY":"0.00016440","TIME_SYSTEM":"UTC"},{"SITE":"AFETR","MEAN_MOTION_DDOT":"0.0000000000000","CENTER_NAME":"EARTH","ARG_OF_PERICENTER":"103.0038","COUNTRY_CODE":"US","REV_AT_EPOCH":"6354","ECCENTRICITY":"0.00014610","TIME_SYSTEM":"UTC","EPOCH":"2023-03-10T12:11:11.956128","MEAN_ANOMALY":"257.1117","PERIOD":"95.437","REF_FRAME":"TEME","GP_ID":"227817588","RCS_SIZE":"LARGE","MEAN_MOTION":"15.08844760","DECAY_DATE":null,"MEAN_ELEMENT_THEORY":"SGP4","CLASSIFICATION_TYPE":"U","RA_OF_ASC_NODE":"165.5860","SEMIMAJOR_AXIS":"6917.866","INCLINATION":"53.2148","APOAPSIS":"540.742","EPHEMERIS_TYPE":"0","NORAD_CAT_ID":"51120","PERIAPSIS":"538.720","TLE_LINE2":"2 51120  53.2148 165.5860 0001461 103.0038 257.1117 15.08844760 63547","FILE":"3856975","TLE_LINE1":"1 51120U 22005S   23069.50777727  .00002098  00000-0  14985-3 0  9999","ELEMENT_SET_NO":"999","OBJECT_ID":"2022-005S","OBJECT_NAME":"STARLINK-3398","LAUNCH_DATE":"2022-01-19","OBJECT_TYPE":"PAYLOAD","BSTAR":"0.00014985000000","MEAN_MOTION_DOT":"0.00002098"},{"OBJECT_NAME":"STARLINK-3399","MEAN_MOTION_DOT":"0.00001673","BSTAR":"0.00012314000000","OBJECT_TYPE":"PAYLOAD","LAUNCH_DATE":"2022-01-19","APOAPSIS":"540.730","EPHEMERIS_TYPE":"0","SEMIMAJOR_AXIS":"6917.863","RA_OF_ASC_NODE":"165.5174","INCLINATION":"53.2164","CLASSIFICATION_TYPE":"U","DECAY_DATE":null,"MEAN_MOTION":"15.08845767","MEAN_ELEMENT_THEORY":"SGP4","OBJECT_ID":"2022-005T","TLE_LINE2":"2 51121  53.2164 165.5174 0001449 121.2264 238.8870 15.08845767 63543","TLE_LINE1":"1 51121U 22005T   23069.52249573  .00001673  00000-0  12314-3 0  9997","FILE":"3856975","ELEMENT_SET_NO":"999","NORAD_CAT_ID":"51121","PERIAPSIS":"538.725","GP_ID":"227816337","PERIOD":"95.437","REF_FRAME":"TEME","MEAN_ANOMALY":"238.8870","EPOCH":"2023-03-10T12:32:23.631072","RCS_SIZE":"LARGE","CENTER_NAME":"EARTH","MEAN_MOTION_DDOT":"0.0000000000000","SITE":"AFETR","TIME_SYSTEM":"UTC","ECCENTRICITY":"0.00014490","REV_AT_EPOCH":"6354","COUNTRY_CODE":"US","ARG_OF_PERICENTER":"121.2264"},{"TLE_LINE1":"1 51122U 22005U   23069.90890438 -.00001203  00000-0 -57529-4 0  9991","FILE":"3856975","ELEMENT_SET_NO":"999","TLE_LINE2":"2 51122  53.2133 163.7838 0001285  91.6752 268.4387 15.08828333 63606","PERIAPSIS":"538.892","NORAD_CAT_ID":"51122","OBJECT_ID":"2022-005U","CLASSIFICATION_TYPE":"U","MEAN_ELEMENT_THEORY":"SGP4","MEAN_MOTION":"15.08828333","DECAY_DATE":null,"EPHEMERIS_TYPE":"0","APOAPSIS":"540.670","INCLINATION":"53.2133","RA_OF_ASC_NODE":"163.7838","SEMIMAJOR_AXIS":"6917.916","OBJECT_TYPE":"PAYLOAD","LAUNCH_DATE":"2022-01-19","MEAN_MOTION_DOT":"-0.00001203","BSTAR":"-0.00005752900000","OBJECT_NAME":"STARLINK-3373","REV_AT_EPOCH":"6360","COUNTRY_CODE":"US","ARG_OF_PERICENTER":"91.6752","TIME_SYSTEM":"UTC","ECCENTRICITY":"0.00012850","MEAN_MOTION_DDOT":"0.0000000000000","SITE":"AFETR","CENTER_NAME":"EARTH","RCS_SIZE":"LARGE","MEAN_ANOMALY":"268.4387","EPOCH":"2023-03-10T21:48:49.338432","GP_ID":"227816587","REF_FRAME":"TEME","PERIOD":"95.438"},{"LAUNCH_DATE":"2022-01-19","OBJECT_TYPE":"PAYLOAD","BSTAR":"0.00008832500000","MEAN_MOTION_DOT":"0.00001118","OBJECT_NAME":"STARLINK-3392","PERIAPSIS":"538.617","NORAD_CAT_ID":"51123","TLE_LINE1":"1 51123U 22005V   23069.50409094  .00001118  00000-0  88325-4 0  9993","FILE":"3856975","ELEMENT_SET_NO":"999","TLE_LINE2":"2 51123  53.2166 165.6000 0001582 125.5934 234.5206 15.08850977 63540","OBJECT_ID":"2022-005V","MEAN_ELEMENT_THEORY":"SGP4","DECAY_DATE":null,"MEAN_MOTION":"15.08850977","CLASSIFICATION_TYPE":"U","INCLINATION":"53.2166","RA_OF_ASC_NODE":"165.6000","SEMIMAJOR_AXIS":"6917.847","EPHEMERIS_TYPE":"0","APOAPSIS":"540.806","RCS_SIZE":"LARGE","EPOCH":"2023-03-10T12:05:53.457216","MEAN_ANOMALY":"234.5206","REF_FRAME":"TEME","PERIOD":"95.437","GP_ID":"227817338","ARG_OF_PERICENTER":"125.5934","COUNTRY_CODE":"US","REV_AT_EPOCH":"6354","ECCENTRICITY":"0.00015820","TIME_SYSTEM":"UTC","SITE":"AFETR","MEAN_MOTION_DDOT":"0.0000000000000","CENTER_NAME":"EARTH"},{"MEAN_MOTION_DOT":"0.00003521","BSTAR":"0.00023909000000","OBJECT_TYPE":"PAYLOAD","LAUNCH_DATE":"2022-01-19","OBJECT_NAME":"STARLINK-3389","OBJECT_ID":"2022-005W","ELEMENT_SET_NO":"999","TLE_LINE1":"1 51124U 22005W   23069.67980889  .00003521  00000-0  23909-3 0  9994","FILE":"3856975","TLE_LINE2":"2 51124  53.2138 174.8109 0001037 100.1126 259.9984 15.08853829 63430","PERIAPSIS":"538.986","NORAD_CAT_ID":"51124","EPHEMERIS_TYPE":"0","APOAPSIS":"540.420","INCLINATION":"53.2138","SEMIMAJOR_AXIS":"6917.838","RA_OF_ASC_NODE":"174.8109","CLASSIFICATION_TYPE":"U","MEAN_ELEMENT_THEORY":"SGP4","DECAY_DATE":null,"MEAN_MOTION":"15.08853829","RCS_SIZE":"LARGE","GP_ID":"227818088","REF_FRAME":"TEME","PERIOD":"95.437","MEAN_ANOMALY":"259.9984","EPOCH":"2023-03-10T16:18:55.488096","TIME_SYSTEM":"UTC","ECCENTRICITY":"0.00010370","REV_AT_EPOCH":"6343","COUNTRY_CODE":"US","ARG_OF_PERICENTER":"100.1126","CENTER_NAME":"EARTH","MEAN_MOTION_DDOT":"0.0000000000000","SITE":"AFETR"},{"ECCENTRICITY":"0.00013640","TIME_SYSTEM":"UTC","ARG_OF_PERICENTER":"122.0125","REV_AT_EPOCH":"6341","COUNTRY_CODE":"US","CENTER_NAME":"EARTH","SITE":"AFETR","MEAN_MOTION_DDOT":"0.0000000000000","RCS_SIZE":"LARGE","PERIOD":"95.439","REF_FRAME":"TEME","GP_ID":"227816836","EPOCH":"2023-03-10T16:04:25.998240","MEAN_ANOMALY":"238.1000","OBJECT_ID":"2022-005X","NORAD_CAT_ID":"51125","PERIAPSIS":"538.848","TLE_LINE2":"2 51125  53.2161 174.8693 0001364 122.0125 238.1000 15.08824839 63415","TLE_LINE1":"1 51125U 22005X   23069.66974535 -.00004460  00000-0 -26243-3 0  9994","ELEMENT_SET_NO":"999","FILE":"3856975","SEMIMAJOR_AXIS":"6917.927","RA_OF_ASC_NODE":"174.8693","INCLINATION":"53.2161","APOAPSIS":"540.735","EPHEMERIS_TYPE":"0","MEAN_MOTION":"15.08824839","DECAY_DATE":null,"MEAN_ELEMENT_THEORY":"SGP4","CLASSIFICATION_TYPE":"U","BSTAR":"-0.00026243000000","MEAN_MOTION_DOT":"-0.00004460","LAUNCH_DATE":"2022-01-19","OBJECT_TYPE":"PAYLOAD","OBJECT_NAME":"STARLINK-3387"}];
